- id: gps-40534
  name: NAVSTAR 73 (USA 260)
  allegiance: friendly
  components:
    - kind: space_orbit
      data:
        line1: "1 40534U 15013A   26086.29205244 -.00000029  00000+0  00000+0 0  9996"
        line2: "2 40534  53.1810 207.5638 0108792  39.9071 320.8617  2.00556171 80184"
        fov_half_angle_deg: 5.0
    - kind: symbol
      data:
        sidc_template:
          version: "10"
          context: reality
          standard_identity: friend
          symbol_set: space
          status: present
          hqtfd: not_applicable
          amplifier: unspecified
          entity: code_110700
          modifier_one: code_02
          modifier_two: code_00
